$$SOE
2460721.500000000, A.D. 2025-Feb-15 00:00:00.0000, -9.948875419073029E+07, 1.338340922414274E+08, 1.502911407271053E+07,
2460728.500000000, A.D. 2025-Feb-22 00:00:00.0000, -1.152055771987064E+08, 1.297174854441228E+08, 1.126479791023110E+07,
2460735.500000000, A.D. 2025-Mar-01 00:00:00.0000, -1.298596436824432E+08, 1.244006023244811E+08, 7.395671218175918E+06,
2460742.500000000, A.D. 2025-Mar-08 00:00:00.0000, -1.434334818565034E+08, 1.180462247136827E+08, 3.464369414758466E+06,
2460749.500000000, A.D. 2025-Mar-15 00:00:00.0000, -1.559223570892418E+08, 1.107969082450714E+08, -4.936300772297382E+05,
2460756.500000000, A.D. 2025-Mar-22 00:00:00.0000, -1.673301254931071E+08, 1.027778278527977E+08, -4.448585404054984E+06,
2460763.500000000, A.D. 2025-Mar-29 00:00:00.0000, -1.776663156477578E+08, 9.409936123086834E+07, -8.375348052741956E+06,
2460770.500000000, A.D. 2025-Apr-05 00:00:00.0000, -1.869440768890561E+08, 8.485935960323478E+07, -1.225245000974545E+07,
2460777.500000000, A.D. 2025-Apr-12 00:00:00.0000, -1.951787404375900E+08, 7.514510794622277E+07, -1.606137445232294E+07,
2460784.500000000, A.D. 2025-Apr-19 00:00:00.0000, -2.023868136947258E+08, 6.503500092970802E+07, -1.978597169904746E+07,
2460791.500000000, A.D. 2025-Apr-26 00:00:00.0000, -2.085852811484278E+08, 5.459997043428516E+07, -2.341198942767059E+07,
2460798.500000000, A.D. 2025-May-03 00:00:00.0000, -2.137911231270731E+08, 4.390470174660663E+07, -2.692669253135775E+07,
2460805.500000000, A.D. 2025-May-10 00:00:00.0000, -2.180209900526221E+08, 3.300867296685963E+07, -3.031855325162447E+07,
2460812.500000000, A.D. 2025-May-17 00:00:00.0000, -2.212909882745276E+08, 2.196704819468938E+07, -3.357699643937460E+07,
2460819.500000000, A.D. 2025-May-24 00:00:00.0000, -2.236165463960906E+08, 1.083145088891741E+07, -3.669218810598433E+07,
2460826.500000000, A.D. 2025-May-31 00:00:00.0000, -2.250123399393416E+08, -3.493597138005774E+05, -3.965485797558637E+07,
2460833.500000000, A.D. 2025-Jun-07 00:00:00.0000, -2.254922595689681E+08, -1.152888872734836E+07, -4.245614857455364E+07,
2460840.500000000, A.D. 2025-Jun-14 00:00:00.0000, -2.250694148110858E+08, -2.266236661002092E+07, -4.508748489031672E+07,
2460847.500000000, A.D. 2025-Jun-21 00:00:00.0000, -2.237561651438382E+08, -3.370626025268311E+07, -4.754046035526010E+07,
2460854.500000000, A.D. 2025-Jun-28 00:00:00.0000, -2.215641710943492E+08, -4.461782015684563E+07, -4.980673558686363E+07,
2460861.500000000, A.D. 2025-Jul-05 00:00:00.0000, -2.185044647076074E+08, -5.535465068162917E+07, -5.187794654958467E+07,
2460868.500000000, A.D. 2025-Jul-12 00:00:00.0000, -2.145875401972519E+08, -6.587429433066018E+07, -5.374561962633343E+07,
2460875.500000000, A.D. 2025-Jul-19 00:00:00.0000, -2.098234658614535E+08, -7.613382150333354E+07, -5.540109166196841E+07,
2460882.500000000, A.D. 2025-Jul-26 00:00:00.0000, -2.042220199484898E+08, -8.608941696312976E+07, -5.683543337945969E+07,
2460889.500000000, A.D. 2025-Aug-02 00:00:00.0000, -1.977928550191169E+08, -9.569595428451675E+07, -5.803937486818838E+07,
2460896.500000000, A.D. 2025-Aug-09 00:00:00.0000, -1.905456973909987E+08, -1.049065494325934E+08, -5.900323215530132E+07,
2460903.500000000, A.D. 2025-Aug-16 00:00:00.0000, -1.824905906413074E+08, -1.136720843135862E+08, -5.971683422142144E+07,
2460910.500000000, A.D. 2025-Aug-23 00:00:00.0000, -1.736381950206439E+08, -1.219406905036008E+08, -6.016945024604394E+07,
2460917.500000000, A.D. 2025-Aug-30 00:00:00.0000, -1.640001586031226E+08, -1.296571819877947E+08, -6.034971735440163E+07,
2460924.500000000, A.D. 2025-Sep-06 00:00:00.0000, -1.535895830242683E+08, -1.367624247544188E+08, -6.024556971083017E+07,
2460931.500000000, A.D. 2025-Sep-13 00:00:00.0000, -1.424216139497942E+08, -1.431926340349608E+08, -5.984417117252583E+07,
2460938.500000000, A.D. 2025-Sep-20 00:00:00.0000, -1.305141909396511E+08, -1.488785890985284E+08, -5.913185575976794E+07,
2460945.500000000, A.D. 2025-Sep-27 00:00:00.0000, -1.178890063568058E+08, -1.537447517587446E+08, -5.809408210002985E+07,
2460952.500000000, A.D. 2025-Oct-04 00:00:00.0000, -1.045727433005476E+08, -1.577082803821868E+08, -5.671541170960035E+07,
2460959.500000000, A.D. 2025-Oct-11 00:00:00.0000, -9.059868420223171E+07, -1.606779395106235E+08, -5.497952700480787E+07,
2460966.500000000, A.D. 2025-Oct-18 00:00:00.0000, -7.600881232383730E+07, -1.625529181279923E+08, -5.286931372739866E+07,
2460973.500000000, A.D. 2025-Oct-25 00:00:00.0000, -6.085656992925994E+07, -1.632215947432837E+08, -5.036704588709473E+07,
2460980.500000000, A.D. 2025-Nov-01 00:00:00.0000, -4.521049046660038E+07, -1.625603332872682E+08, -4.745473187627313E+07,
2460987.500000000, A.D. 2025-Nov-08 00:00:00.0000, -2.915898786039123E+07, -1.604324743602225E+08, -4.411471154557655E+07,
2460994.500000000, A.D. 2025-Nov-15 00:00:00.0000, -1.281665894077894E+07, -1.566878249515468E+08, -4.033064054513220E+07,
2461001.500000000, A.D. 2025-Nov-22 00:00:00.0000, 3.667482704126969E+06, -1.511631829524409E+08, -3.608906596493464E+07,
2461008.500000000, A.D. 2025-Nov-29 00:00:00.0000, 2.009941755456239E+07, -1.436848141640572E+08, -3.138189097871111E+07,
2461015.500000000, A.D. 2025-Dec-06 00:00:00.0000, 3.622690977906873E+07, -1.340743992277942E+08, -2.621014337845001E+07,
2461022.500000000, A.D. 2025-Dec-13 00:00:00.0000, 5.172396074568107E+07, -1.221608363410859E+08, -2.058957724579327E+07,
2461029.500000000, A.D. 2025-Dec-20 00:00:00.0000, 6.617456027745500E+07, -1.078013431946520E+08, -1.455865836326931E+07,
2461036.500000000, A.D. 2025-Dec-27 00:00:00.0000, 7.906012258484730E+07, -9.091610234556790E+07, -8.189193436057378E+06,
2461043.500000000, A.D. 2026-Jan-03 00:00:00.0000, 8.975969714739411E+07, -7.153988834865321E+07, -1.598839512433417E+06,
2461050.500000000, A.D. 2026-Jan-10 00:00:00.0000, 9.757799021739385E+07, -4.988892815488730E+07, 5.037575863875961E+06,
2461057.500000000, A.D. 2026-Jan-17 00:00:00.0000, 1.018189579800212E+08, -2.642834379625606E+07, 1.148460808633126E+07,
2461064.500000000, A.D. 2026-Jan-24 00:00:00.0000, 1.019121580446212E+08, -1.906153281964177E+06, 1.746015480970860E+07,
2461071.500000000, A.D. 2026-Jan-31 00:00:00.0000, 9.756627602165748E+07, 2.269094693503164E+07, 2.267320268669246E+07,
2461078.500000000, A.D. 2026-Feb-07 00:00:00.0000, 8.888299433774282E+07, 4.628022659598957E+07, 2.687851807677056E+07,
2461085.500000000, A.D. 2026-Feb-14 00:00:00.0000, 7.636017303749716E+07, 6.788136423133102E+07, 2.992543019607953E+07,
2461092.500000000, A.D. 2026-Feb-21 00:00:00.0000, 6.077361144969706E+07, 8.678018686814113E+07, 3.177682686923616E+07,
2461099.500000000, A.D. 2026-Feb-28 00:00:00.0000, 4.300210846123691E+07, 1.025906568989673E+08, 3.249345075914329E+07,
2461106.500000000, A.D. 2026-Mar-07 00:00:00.0000, 2.387770648718853E+07, 1.152183601504375E+08, 3.219868871174335E+07,
2461113.500000000, A.D. 2026-Mar-14 00:00:00.0000, 4.101534577206851E+06, 1.247749131687756E+08, 3.104297164507825E+07,
2461120.500000000, A.D. 2026-Mar-21 00:00:00.0000, -1.578024550903514E+07, 1.314904454460482E+08, 2.917827651191057E+07,
2461127.500000000, A.D. 2026-Mar-28 00:00:00.0000, -3.536464072504203E+07, 1.356471148699058E+08, 2.674404468705926E+07,
2461134.500000000, A.D. 2026-Apr-04 00:00:00.0000, -5.436578918358832E+07, 1.375369480871703E+08, 2.386151587096150E+07,
2461141.500000000, A.D. 2026-Apr-11 00:00:00.0000, -7.258733371356790E+07, 1.374387333230398E+08, 2.063297147157952E+07,
2461148.500000000, A.D. 2026-Apr-18 00:00:00.0000, -8.989860404913874E+07, 1.356073553049093E+08, 1.714333177864674E+07,
2461155.500000000, A.D. 2026-Apr-25 00:00:00.0000, -1.062159595173832E+08, 1.322703656140866E+08, 1.346260389394872E+07,
2461162.500000000, A.D. 2026-May-02 00:00:00.0000, -1.214888954464351E+08, 1.276283689315470E+08, 9.648419226121545E+06,
2461169.500000000, A.D. 2026-May-09 00:00:00.0000, -1.356899809104202E+08, 1.218571964786750E+08, 5.748331506180212E+06,
2461176.500000000, A.D. 2026-May-16 00:00:00.0000, -1.488076811423540E+08, 1.151107468450808E+08, 1.801769488442108E+06,
2461183.500000000, A.D. 2026-May-23 00:00:00.0000, -1.608412783451363E+08, 1.075239173711397E+08, -2.158357910366394E+06,
2461190.500000000, A.D. 2026-May-30 00:00:00.0000, -1.717972932947420E+08, 9.921535351335911E+07, -6.104364744428590E+06,
2461197.500000000, A.D. 2026-Jun-06 00:00:00.0000, -1.816869702287126E+08, 9.028990371708310E+07, -1.001274895646025E+07,
2461204.500000000, A.D. 2026-Jun-13 00:00:00.0000, -1.905245093116922E+08, 8.084075492050467E+07, -1.386336227775184E+07,
2461211.500000000, A.D. 2026-Jun-20 00:00:00.0000, -1.983258271344461E+08, 7.095126716156906E+07, -1.763874635549606E+07,
2461218.500000000, A.D. 2026-Jun-27 00:00:00.0000, -2.051076921176787E+08, 6.069653951351284E+07, -2.132360007613581E+07,
2461225.500000000, A.D. 2026-Jul-04 00:00:00.0000, -2.108871258494719E+08, 5.014474383197279E+07, -2.490435007844210E+07,
2461232.500000000, A.D. 2026-Jul-11 00:00:00.0000, -2.156809935020072E+08, 3.935826236926088E+07, -2.836880222171406E+07,
2461239.500000000, A.D. 2026-Jul-18 00:00:00.0000, -2.195057294127862E+08, 2.839466212757428E+07, -3.170585652555754E+07,
2461246.500000000, A.D. 2026-Jul-25 00:00:00.0000, -2.223771599339140E+08, 1.730753473586434E+07, -3.490527190036102E+07,
2461253.500000000, A.D. 2026-Aug-01 00:00:00.0000, -2.243103968435023E+08, 6.147226537462013E+06, -3.795746996507897E+07,
2461260.500000000, A.D. 2026-Aug-08 00:00:00.0000, -2.253197824015431E+08, -5.038520079590021E+06, -4.085336956162313E+07,
2461267.500000000, A.D. 2026-Aug-15 00:00:00.0000, -2.254188726415406E+08, -1.620399573842871E+07, -4.358424532567395E+07,
2461274.500000000, A.D. 2026-Aug-22 00:00:00.0000, -2.246204508282486E+08, -2.730500697861400E+07, -4.614160486814566E+07,
2461281.500000000, A.D. 2026-Aug-29 00:00:00.0000, -2.229365676540331E+08, -3.829840116402874E+07, -4.851708025051562E+07,
$$EOE